STARLINK-11729 [DTC]    
1 64073U 25107K   25150.83336806  .00000048  00000+0  25300-5 0  9991
2 64073  43.0061   5.8285 0002013 268.7592  64.9093 15.84753276  2752
STARLINK-11730 [DTC]    
1 64074U 25107L   25150.83336806 -.00061270  00000+0 -25452-3 0  9994
2 64074  43.0061   5.8194 0001866 258.0577  79.2899 15.84789629  2756
STARLINK-11723 [DTC]    
1 64075U 25107M   25150.83336806  .00018608  00000+0  79810-4 0  9998
2 64075  43.0063   5.8079 0002171 267.7401  74.1303 15.84740780  2708
STARLINK-11715 [DTC]    
1 64076U 25107N   25150.83336806 -.00046044  00000+0 -19047-3 0  9991
2 64076  43.0062   5.8032 0002074 263.1063  80.5938 15.84776397  2701
STARLINK-34201          
1 64077U 25107P   25150.58335648 -.00959768  00000+0 -42887-2 0  9990
2 64077  43.0063   7.3275 0002029 260.1592  99.3546 15.85558331  2613
STARLINK-34190          
1 64078U 25107Q   25150.58335648 -.00978069  00000+0 -43553-2 0  9997
2 64078  43.0062   7.3132 0002106 262.7051 102.3921 15.85672382  2568
STARLINK-34168          
1 64079U 25107R   25150.58335648 -.00959635  00000+0 -42798-2 0  9996
2 64079  43.0063   7.3243 0002100 259.3614 101.4960 15.85596730  2727
STARLINK-34098          
1 64080U 25107S   25150.58335648 -.00966853  00000+0 -43075-2 0  9997
2 64080  43.0062   7.3195 0002081 259.8396 102.8606 15.85635536  2724
STARLINK-34180          
1 64081U 25107T   25150.58335648 -.00994584  00000+0 -44299-2 0  9999
2 64081  43.0062   7.3062 0002054 261.3337 106.7095 15.85707982  2721
STARLINK-34171          
1 64082U 25107U   25150.58335648 -.01003467  00000+0 -44666-2 0  9990
2 64082  43.0062   7.2997 0002126 262.3369 108.2868 15.85741664  2724
STARLINK-34126          
1 64083U 25107V   25150.58335648 -.01037173  00000+0 -46099-2 0  9994
2 64083  43.0062   7.2809 0002001 259.2006 118.8276 15.85854672  2614
STARLINK-34157          
1 64084U 25107W   25150.83336806 -.01110503  00000+0 -51081-2 0  9996
2 64084  43.0058   5.7367 0001984 268.5647 101.0833 15.85338003  2769
STARLINK-34140          
1 64085U 25107X   25150.58335648 -.01012729  00000+0 -45053-2 0  9995
2 64085  43.0060   7.2929 0002104 261.8789 111.3229 15.85775773  2720
STARLINK-34132          
1 64086U 25107Y   25150.58335648 -.01024715  00000+0 -45565-2 0  9992
2 64086  43.0062   7.2868 0002052 261.9887 113.6308 15.85814952  2453
2025-108A               
1 64087U 25108A   25150.86743299  .00005779  00000+0  32684-3 0  9995
2 64087  97.5129 226.5536 0014798 255.1740 104.7852 15.13371266  1476
2025-108B               
1 64088U 25108B   25150.87019802  .00008230  00000+0  46915-3 0  9990
2 64088  97.5093 226.5458 0013923 248.2023 111.7727 15.12963112  1437
2025-108C               
1 64089U 25108C   25150.87092577  .00006047  00000+0  34696-3 0  9998
2 64089  97.5062 226.5376 0015140 249.0086 110.9525 15.12826226  1435
2025-108D               
1 64090U 25108D   25150.86921223  .00005294  00000+0  30220-3 0  9990
2 64090  97.5062 226.5436 0013962 251.1344 108.8373 15.13084102  1432
2025-108E               
1 64091U 25108E   25150.86998985  .00010070  00000+0  57221-3 0  9998
2 64091  97.5055 226.5420 0013992 248.3795 111.5946 15.13013922  1438
2025-108F               
1 64092U 25108F   25150.86908780  .00013950  00000+0  78774-3 0  9999
2 64092  97.5050 226.5425 0013903 251.0927 108.8798 15.13157837  1437
ZK-1 R/B                
1 64093U 25108G   25150.85943751  .00014299  00000+0  34747-3 0  9995
2 64093  97.4639 226.8093 0105585 344.7911  15.0165 15.35416389  1458
TJS-19 AKM              
1 64094U 25097C   25149.94416941  .00000008  00000+0  00000+0 0  9991
2 64094   3.9721 312.8090 0014986 216.7422 143.1831  0.98834861   134
COSMOS 2588             
1 64095U 25109A   25150.73063154  .00008983  00000+0  29890-3 0  9991
2 64095  72.9727 354.9790 0011957 224.2204 135.8038 15.31239427  1136
STARLINK-34178          
1 64096U 25110A   25150.83336806 -.01296922  00000+0 -51378-2 0  9992
2 64096  53.1547 274.6646 0000723  52.6693 128.9909 15.88565959  2281
STARLINK-34174          
1 64097U 25110B   25150.83336806 -.01296918  00000+0 -51231-2 0  9996
2 64097  53.1548 274.6614 0000643  45.9356 137.2392 15.88623317  2282
STARLINK-34146          
1 64098U 25110C   25150.83336806 -.01309184  00000+0 -51592-2 0  9997
2 64098  53.1547 274.6566 0000843  42.8200 142.5011 15.88693207  2286
STARLINK-34074          
1 64099U 25110D   25150.83336806 -.01318927  00000+0 -51842-2 0  9991
2 64099  53.1546 274.6526 0000710  49.2454 138.0876 15.88765314  2285
STARLINK-34082          
1 64100U 25110E   25150.83336806 -.01334444  00000+0 -52350-2 0  9991
2 64100  53.1547 274.6488 0000732  46.1364 143.0150 15.88834949  2288
STARLINK-34072          
1 64101U 25110F   25150.83336806 -.01344952  00000+0 -52641-2 0  9990
2 64101  53.1547 274.6445 0000657  55.2097 135.9275 15.88902480  2286
STARLINK-34104          
1 64102U 25110G   25150.83336806 -.01341837  00000+0 -52347-2 0  9993
2 64102  53.1546 274.6408 0000705  49.2406 143.7156 15.88960124  2280
STARLINK-34179          
1 64103U 25110H   25150.83336806 -.01358597  00000+0 -52895-2 0  9993
2 64103  53.1547 274.6366 0000652  48.0970 146.8543 15.89034201  2282
STARLINK-34176          
1 64104U 25110J   25150.83336806 -.01351361  00000+0 -52423-2 0  9993
2 64104  53.1545 274.6331 0000704  55.5614 141.1419 15.89089959  2289
STARLINK-33949          
1 64105U 25110K   25150.83336806 -.01370020  00000+0 -53054-2 0  9998
2 64105  53.1543 274.6288 0000692  50.7520 147.9695 15.89162504  2286
STARLINK-33970          
1 64106U 25110L   25150.83336806 -.01376248  00000+0 -53158-2 0  9992
2 64106  53.1543 274.6250 0000807  37.0035 163.5161 15.89224427  2288
STARLINK-33912          
1 64107U 25110M   25150.83336806 -.01389967  00000+0 -53581-2 0  9995
2 64107  53.1542 274.6211 0000724  49.2986 153.1699 15.89292547  2282
STARLINK-34156          
1 64108U 25110N   25150.83336806 -.01401317  00000+0 -53916-2 0  9992
2 64108  53.1542 274.6173 0000672  50.5700 153.5792 15.89353664  2287
STARLINK-34124          
1 64109U 25110P   25150.83336806 -.01365548  00000+0 -52290-2 0  9992
2 64109  53.1542 274.6134 0000716  75.4838 130.4737 15.89373121  2285
STARLINK-34145          
1 64110U 25110Q   25150.83336806 -.01420817  00000+0 -54433-2 0  9996
2 64110  53.1542 274.6098 0000636  46.7265 161.0597 15.89477881  2284
STARLINK-34148          
1 64111U 25110R   25150.83336806 -.01449408  00000+0 -55487-2 0  9994
2 64111  53.1542 274.6058 0000697  48.0101 161.6699 15.89551021  2280
STARLINK-34136          
1 64112U 25110S   25150.83336806 -.01463780  00000+0 -55951-2 0  9990
2 64112  53.1541 274.6017 0000611  51.4026 160.0058 15.89612089  2289
STARLINK-33839          
1 64113U 25110T   25150.83336806 -.01476924  00000+0 -56351-2 0  9990
2 64113  53.1544 274.5980 0000745  43.7946 169.5536 15.89673348  2284
STARLINK-34064          
1 64114U 25110U   25150.83336806 -.01499453  00000+0 -57160-2 0  9992
2 64114  53.1540 274.5944 0000671  49.6457 165.3702 15.89738946  2286
STARLINK-34067          
1 64115U 25110V   25150.83336806 -.01519461  00000+0 -57872-2 0  9995
2 64115  53.1540 274.5908 0000632  49.6624 167.2281 15.89798921  2282
STARLINK-34080          
1 64116U 25110W   25150.83336806 -.01565585  00000+0 -58278-2 0  9995
2 64116  53.1542 274.5869 0000532  43.1403 175.5500 15.89856811  2283
STARLINK-34122          
1 64117U 25110X   25150.83336806 -.01574261  00000+0 -58486-2 0  9998
2 64117  53.1539 274.5833 0000561  51.6034 168.7228 15.89909461  2288
STARLINK-33964          
1 64118U 25110Y   25150.83336806 -.01594376  00000+0 -59155-2 0  9992
2 64118  53.1539 274.5793 0000667  47.3289 174.8820 15.89968321  2281
STARLINK-34160          
1 64119U 25110Z   25150.83336806 -.01605220  00000+0 -59455-2 0  9997
2 64119  53.1541 274.5767 0000676  47.3423 176.4217 15.90020178  2285
STARLINK-34151          
1 64120U 25110AA  25150.83336806 -.01606056  00000+0 -59342-2 0  9992
2 64120  53.1542 274.5726 0000597  40.7581 184.7360 15.90069541  2285
STARLINK-34189          
1 64121U 25110AB  25150.83336806 -.01629424  00000+0 -59993-2 0  9999
2 64121  53.1541 274.5665 0000787  45.5289 183.2400 15.90175942  2288
STARLINK-33991          
1 64122U 25110AC  25150.83336806 -.01617420  00000+0 -59665-2 0  9999
2 64122  53.1542 274.5695 0000675  42.0749 185.2559 15.90119594  2280
SHIJIAN-26 (SJ-26)      
1 64199U 25115A   25150.74336915  .00025360  00000+0  14758-2 0  9996
2 64199  97.5237 226.1239 0061976 190.0484 169.9511 15.10376753   239
CZ-4B DEB               
1 64200U 25115B   25150.77229564  .00031406  00000+0  18250-2 0  9992
2 64200  97.5232 226.1501 0061978 189.9895 327.1983 15.10383577   237
CZ-4B R/B               
1 64201U 25115C   25150.82045908  .00101535  48895-5  61738-3 0  9998
2 64201  97.4337 226.3017 0158105  12.2617 348.2417 15.61975483   220
2025-116A               
1 64202U 25116A   25150.82438177 -.00000119  00000+0  00000+0 0  9992
2 64202  54.9847  51.5235 5944680 270.0616  65.2787  4.02754009    08
